STARLINK-31951          
1 59890U 24100F   26068.52219140 -.00003069  00000+0 -10211-3 0  9991
2 59890  42.9998 126.1377 0000900 306.1057  53.9711 15.27567684101034
FLOCK 4G-23             
1 62647U 25009AQ  26068.71663397  .00012440  00000+0  46816-3 0  9993
2 62647  97.3979 150.9478 0000905   7.2707 352.8545 15.27262579 63728
